{
  "norad_id": 52650,
  "name": "STARLINK-3891",
  "history": [
    {
      "epoch": "2026-03-28T11:23:09.492288",
      "apogee_km": 540.5339173254761,
      "perigee_km": 538.766007689338,
      "latitude_deg": 46.85494643022557,
      "longitude_deg": -149.45611967984587,
      "semi_major_axis_km": 6917.786962507407,
      "eccentricity": 0.00012778,
      "inclination_deg": 53.2178,
      "raan_deg": 164.9032,
      "arg_perigee_deg": 84.1723,
      "mean_anomaly_deg": 275.9414,
      "mean_motion_rev_day": 15.08870566
    }
  ]
}